STARLINK-1103_new
1 14921C 20001H   21326.16619107  .00003224  00000-0  22094-3 0  3263
2 14921  53.0269 188.0044 0001904  79.6092 147.2104 15.05559649    18
STARLINK-1103_old
1 24921C 20001H   21325.10000586  .00005731  00000-0  39274-3 0  3253
2 24921  53.0157 192.7886 0001901  77.7768 127.0874 15.05555738    11
